[{"OBJECT_NAME":"STARLINK-6229","OBJECT_ID":"2023-088AX","EPOCH":"2026-03-09T22:00:01.999584","MEAN_MOTION":15.08713209,"ECCENTRICITY":8.031e-5,"INCLINATION":43.0013,"RA_OF_ASC_NODE":92.8603,"ARG_OF_PERICENTER":300.4544,"MEAN_ANOMALY":222.1282,"EPHEMERIS_TYPE":0,"CLASSIFICATION_TYPE":"U","NORAD_CAT_ID":57093,"ELEMENT_SET_NO":999,"REV_AT_EPOCH":568,"BSTAR":0.0032165127,"MEAN_MOTION_DOT":0.00051479,"MEAN_MOTION_DDOT":0},{"OBJECT_NAME":"CZ-6A DEB","OBJECT_ID":"2024-140RH","EPOCH":"2026-03-09T12:32:13.567200","MEAN_MOTION":15.23024459,"ECCENTRICITY":0.01073082,"INCLINATION":88.6757,"RA_OF_ASC_NODE":253.1302,"ARG_OF_PERICENTER":74.0491,"MEAN_ANOMALY":287.2547,"EPHEMERIS_TYPE":0,"CLASSIFICATION_TYPE":"U","NORAD_CAT_ID":61163,"ELEMENT_SET_NO":999,"REV_AT_EPOCH":8457,"BSTAR":0.0019108924,"MEAN_MOTION_DOT":0.00053105,"MEAN_MOTION_DDOT":0}]
